OBJECT_NAME,OBJECT_ID,EPOCH,MEAN_MOTION,ECCENTRICITY,INCLINATION,RA_OF_ASC_NODE,ARG_OF_PERICENTER,MEAN_ANOMALY,EPHEMERIS_TYPE,CLASSIFICATION_TYPE,NORAD_CAT_ID,ELEMENT_SET_NO,REV_AT_EPOCH,BSTAR,MEAN_MOTION_DOT,MEAN_MOTION_DDOT
KUIPER-00513,2026-140G,2026-07-12T14:25:56.669376,15.38121124,.0007466,51.8814,275.8078,328.9554,31.0991,0,U,69598,999,514,.37161E-3,.13806E-3,0
KUIPER-00516,2026-140H,2026-07-12T14:36:31.680864,15.37561991,.0007004,51.8798,275.8479,345.9177,14.1614,0,U,69599,999,514,.36856E-3,.13436E-3,0
KUIPER-00517,2026-140J,2026-07-12T14:05:40.691328,15.38784525,.0010576,51.8775,275.7100,281.2681,78.7118,0,U,69600,999,514,.44128E-3,.16857E-3,0
KUIPER-00520,2026-140K,2026-07-12T13:04:19.200288,15.37615748,.0006893,51.8829,276.1796,347.2646,12.8166,0,U,69601,999,513,.45865E-3,.16855E-3,0
KUIPER-00522,2026-140L,2026-07-12T10:53:33.164448,15.38612345,.0013053,51.8796,276.3223,258.0120,101.9404,0,U,69602,999,512,.4263989E-3,.16196E-3,0
KUIPER-00528,2026-140M,2026-07-12T14:41:25.270656,15.37466391,.0006373,51.8788,275.8726,354.1957,5.8955,0,U,69603,999,514,.38264E-3,.1392E-3,0
KUIPER-00532,2026-140N,2026-07-12T13:21:47.259072,15.36593902,.0005509,51.8801,276.2470,24.5719,335.5529,0,U,69604,999,513,.27904E-3,.9751E-4,0
KUIPER-00533,2026-140P,2026-07-12T14:20:30.498144,15.38248717,.0007949,51.8808,275.7759,316.7126,43.3236,0,U,69605,999,514,.81563E-3,.30982E-3,0
KUIPER-00534,2026-140Q,2026-07-12T10:46:22.995264,15.38687944,.00128729,51.8820,276.2971,267.2445,92.7069,0,U,69606,999,512,.64263489E-3,.24701E-3,0
KUIPER-00537,2026-140R,2026-07-11T14:23:35.367360,15.34296234,.00110069,51.8811,281.0851,42.8840,317.3002,0,U,69607,999,498,.36402965E-3,.11929E-3,0
KUIPER-00538,2026-140S,2026-07-12T13:00:57.560832,15.37691608,.00069128,51.8813,276.1626,334.9005,25.1645,0,U,69608,999,513,.2602778E-3,.9408E-4,0
KUIPER-00540,2026-140T,2026-07-12T14:49:51.860640,15.36933306,.0006735,51.8824,275.9170,14.4196,345.6981,0,U,69609,999,514,.34513E-3,.12296E-3,0
KUIPER-00541,2026-140U,2026-07-13T00:00:02.000160,15.38372884,.0007622,51.8815,273.8375,314.9745,115.9537,0,U,69610,999,512,.60766E-3,.23048E-3,0
KUIPER-00542,2026-140V,2026-07-12T14:18:17.735040,15.38254670,.0007499,51.8789,275.7678,296.9324,63.0896,0,U,69611,999,514,.68382E-3,.25895E-3,0
KUIPER-00543,2026-140W,2026-07-12T11:48:50.605632,15.36803491,.00077995,51.8787,276.5601,25.6702,334.4670,0,U,69612,999,512,.47469651E-3,.17002E-3,0
KUIPER-00544,2026-140X,2026-07-12T14:24:28.639008,15.38141343,.0006694,51.8786,275.7960,311.0790,48.9618,0,U,69613,999,514,.33899E-3,.12564E-3,0
KUIPER-00546,2026-140Y,2026-07-12T10:47:17.138688,15.38834385,.00137146,51.8781,276.2891,257.6373,102.3080,0,U,69614,999,512,.48034216E-3,.18442E-3,0
KUIPER-00547,2026-140Z,2026-07-12T12:41:52.926720,15.37875853,.00109544,51.8817,276.0782,279.3910,80.5839,0,U,69615,999,513,.40771924E-3,.15081E-3,0
KUIPER-00549,2026-140AA,2026-07-12T11:36:14.278176,15.37312837,.00073762,51.8805,276.5058,5.5176,354.5891,0,U,69616,999,512,.54270577E-3,.19828E-3,0
KUIPER-00550,2026-140AB,2026-07-13T04:00:01.998720,15.32039313,.0007578,51.8786,273.6786,57.0013,254.0070,0,U,69617,999,447,.1527E-2,.47909E-3,0
KUIPER-00551,2026-140AC,2026-07-12T10:57:27.565056,15.38393313,.00122431,51.8784,276.3279,261.7916,98.1683,0,U,69618,999,512,.58361132E-3,.22165E-3,0
KUIPER-00554,2026-140AD,2026-07-12T06:25:05.010240,15.37928096,.0011177,51.8780,277.3159,281.0431,78.9299,0,U,69619,999,509,.27433E-3,.10028E-3,0
KUIPER-00555,2026-140AE,2026-07-12T08:00:01.999872,15.37916666,.00113043,51.8816,276.9742,267.6743,112.7047,0,U,69620,999,457,-.36699941E-3,-.14303E-3,0
KUIPER-00556,2026-140AF,2026-07-12T20:22:38.974080,15.37854962,.001062,51.8804,274.4699,249.9236,110.0608,0,U,69621,999,518,-.48965E-2,-.181525E-2,0
KUIPER-00557,2026-140AG,2026-07-12T12:46:42.985344,15.37543982,.000993,51.8806,276.0995,291.6593,68.3336,0,U,69622,999,513,.32775371E-3,.11904E-3,0
KUIPER-00560,2026-140AH,2026-07-13T00:00:02.000160,15.38808935,.000877,51.8782,273.7342,297.2270,179.4007,0,U,69623,999,478,.63451E-3,.24446E-3,0
KUIPER-00561,2026-140AJ,2026-07-11T17:56:40.634592,15.38107852,.00092458,51.8826,279.8412,285.6749,74.3218,0,U,69624,999,501,-.15960765E-1,-.566727E-2,0
KUIPER-00564,2026-140AK,2026-07-12T14:15:15.674688,15.37292702,.0009399,51.8804,275.7591,289.5457,70.4514,0,U,69625,999,514,.30553E-3,.10975E-3,0
KUIPER-00567,2026-140AL,2026-07-12T10:58:10.936992,15.38204497,.00127464,51.8803,276.3363,268.2511,91.7016,0,U,69626,999,512,.35168328E-3,.131E-3,0
KUIPER-00573,2026-140AM,2026-07-12T14:25:40.179936,15.37431851,.000929,51.8785,275.8009,276.7362,83.2567,0,U,69627,999,514,.33589E-3,.12162E-3,0
